STARLINK-4472           
1 53661U 22105P   26068.62485236  .00000528  00000+0  45629-4 0  9993
2 53661  97.6032 310.1441 0000618 101.6515 258.4778 15.01262358193229
HAWK-9A                 
1 59446U 24066E   26068.43100697  .00002638  00000+0  23459-3 0  9992
2 59446  45.6088  72.7153 0003627 244.6286 115.4219 14.98777479104861
